HAWK-11C                
1 62381U 24247E   26068.51221537  .00009223  00000+0  33290-3 0  9992
2 62381  45.0045 114.8762 0005900 329.7040  30.3502 15.28848020 67743
STARLINK-36450          
1 67317U 26002N   26068.42039134  .00031574  00000+0  11516-2 0  9997
2 67317  43.0057 327.1425 0000824 300.9814  59.0957 15.27591291 11197
